IRIDIUM 26              
1 24903U 97043A   25355.12275665  .00000298  00000+0  93295-4 0  9995
2 24903  86.3950  32.0389 0002234  98.6478 261.4973 14.37333639483592
IRIDIUM 22              
1 24907U 97043E   25355.48683458  .00000284  00000+0  90696-4 0  9998
2 24907  86.3954  35.5867 0002337  94.4565 265.6899 14.36127153483655
DUMMY MASS 1            
1 24925U 97048A   25355.14912611  .00000304  00000+0  30657-4 0  9996
2 24925  86.3336  48.8147 0006097 182.1253 177.9947 14.87189319532914
DUMMY MASS 2            
1 24926U 97048B   25355.41169605  .00000347  00000+0  35700-4 0  9995
2 24926  86.3336  50.3357 0006373 196.2061 163.8961 14.86940158532720
IRIDIUM 29              
1 24944U 97051A   25355.44166069  .00000308  00000+0  97936-4 0  9999
2 24944  86.3947  65.2899 0002259  91.0441 269.1015 14.36669040480159
IRIDIUM 33              
1 24946U 97051C   25355.21339213  .00000286  00000+0  93366-4 0  9997
2 24946  86.3863  64.6648 0008046 172.1604 187.9719 14.35042893479566
IRIDIUM 28              
1 24948U 97051E   25355.22761663  .00000329  00000+0  10333-3 0  9998
2 24948  86.3952  62.7884 0002218 109.3331 250.8106 14.37569039480719
IRIDIUM 36              
1 24967U 97056C   25355.37059471  .00000351  00000+0  10995-3 0  9996
2 24967  86.3963  94.3559 0002301 100.8019 259.3438 14.37791145479113
